[{"spaceTrack":{"CCSDS_OMM_VERS":"2.0","COMMENT":"GENERATED VIA SPACE-TRACK.ORG API","CREATION_DATE":"2021-10-25T22:26:12","ORIGINATOR":"18 SPCS","OBJECT_NAME":"STARLINK-1751","OBJECT_ID":"2020-062BF","CENTER_NAME":"EARTH","REF_FRAME":"TEME","TIME_SYSTEM":"UTC","MEAN_ELEMENT_THEORY":"SGP4","EPOCH":"2021-10-25T12:22:49.562688","MEAN_MOTION":15.06398216,"ECCENTRICITY":0.0001525,"INCLINATION":53.0536,"RA_OF_ASC_NODE":297.131,"ARG_OF_PERICENTER":73.2216,"MEAN_ANOMALY":286.894,"EPHEMERIS_TYPE":0,"CLASSIFICATION_TYPE":"U","NORAD_CAT_ID":46378,"ELEMENT_SET_NO":999,"REV_AT_EPOCH":6453,"BSTAR":0.00002116,"MEAN_MOTION_DOT":3.4e-7,"MEAN_MOTION_DDOT":0,"SEMIMAJOR_AXIS":6925.354,"PERIOD":95.592,"APOAPSIS":548.275,"PERIAPSIS":546.163,"OBJECT_TYPE":"PAYLOAD","RCS_SIZE":"LARGE","COUNTRY_CODE":"US","LAUNCH_DATE":"2020-09-03","SITE":"AFETR","DECAY_DATE":null,"DECAYED":0,"FILE":3183556,"GP_ID":188147868,"TLE_LINE0":"0 STARLINK-1751","TLE_LINE1":"1 46378U 20062BF  21298.51585142  .00000034  00000-0  21160-4 0  9992","TLE_LINE2":"2 46378  53.0536 297.1310 0001525  73.2216 286.8940 15.06398216 64535"},"height_km":547.3873417373034,"latitude":24.499342039593373,"launch":"5ef6a1e90059c33cee4a828a","longitude":42.928080291484825,"velocity_kms":7.592134828120772,"version":"v1.0","id":"5f5a9c1e2fd30c00065e5ead"},{"spaceTrack":{"CCSDS_OMM_VERS":"2.0","COMMENT":"GENERATED VIA SPACE-TRACK.ORG API","CREATION_DATE":"2021-10-26T14:36:12","ORIGINATOR":"18 SPCS","OBJECT_NAME":"STARLINK-1764","OBJECT_ID":"2020-062U","CENTER_NAME":"EARTH","REF_FRAME":"TEME","TIME_SYSTEM":"UTC","MEAN_ELEMENT_THEORY":"SGP4","EPOCH":"2021-10-26T06:19:37.737408","MEAN_MOTION":15.06399285,"ECCENTRICITY":0.0001204,"INCLINATION":53.0554,"RA_OF_ASC_NODE":318.7693,"ARG_OF_PERICENTER":82.939,"MEAN_ANOMALY":277.1736,"EPHEMERIS_TYPE":0,"CLASSIFICATION_TYPE":"U","NORAD_CAT_ID":46343,"ELEMENT_SET_NO":999,"REV_AT_EPOCH":6430,"BSTAR":0.000028498,"MEAN_MOTION_DOT":0.00000143,"MEAN_MOTION_DDOT":0,"SEMIMAJOR_AXIS":6925.351,"PERIOD":95.592,"APOAPSIS":548.05,"PERIAPSIS":546.382,"OBJECT_TYPE":"PAYLOAD","RCS_SIZE":"LARGE","COUNTRY_CODE":"US","LAUNCH_DATE":"2020-09-03","SITE":"AFETR","DECAY_DATE":null,"DECAYED":0,"FILE":3184610,"GP_ID":188170081,"TLE_LINE0":"0 STARLINK-1764","TLE_LINE1":"1 46343U 20062U   21299.26363122  .00000143  00000-0  28498-4 0  9991","TLE_LINE2":"2 46343  53.0554 318.7693 0001204  82.9390 277.1736 15.06399285 64303"},"height_km":564.0658334728687,"latitude":-47.248448415348236,"launch":"5ef6a1e90059c33cee4a828a","longitude":-6.005481307586254,"velocity_kms":7.578620043917151,"version":"v1.0","id":"5f5a9c1e2fd30c00065e5eb6"},{"spaceTrack":{"CCSDS_OMM_VERS":"2.0","COMMENT":"GENERATED VIA SPACE-TRACK.ORG API","CREATION_DATE":"2021-10-25T14:16:12","ORIGINATOR":"18 SPCS","OBJECT_NAME":"STARLINK-1646","OBJECT_ID":"2020-062AC","CENTER_NAME":"EARTH","REF_FRAME":"TEME","TIME_SYSTEM":"UTC","MEAN_ELEMENT_THEORY":"SGP4","EPOCH":"2021-10-25T09:21:42.439392","MEAN_MOTION":15.06399379,"ECCENTRICITY":0.0001149,"INCLINATION":53.0543,"RA_OF_ASC_NODE":322.6891,"ARG_OF_PERICENTER":85.8633,"MEAN_ANOMALY":274.2487,"EPHEMERIS_TYPE":0,"CLASSIFICATION_TYPE":"U","NORAD_CAT_ID":46351,"ELEMENT_SET_NO":999,"REV_AT_EPOCH":6417,"BSTAR":0.000036472,"MEAN_MOTION_DOT":0.00000262,"MEAN_MOTION_DDOT":0,"SEMIMAJOR_AXIS":6925.35,"PERIOD":95.592,"APOAPSIS":548.011,"PERIAPSIS":546.42,"OBJECT_TYPE":"PAYLOAD","RCS_SIZE":"LARGE","COUNTRY_CODE":"US","LAUNCH_DATE":"2020-09-03","SITE":"AFETR","DECAY_DATE":null,"DECAYED":0,"FILE":3183178,"GP_ID":188115797,"TLE_LINE0":"0 STARLINK-1646","TLE_LINE1":"1 46351U 20062AC  21298.39007453  .00000262  00000-0  36472-4 0  9998","TLE_LINE2":"2 46351  53.0543 322.6891 0001149  85.8633 274.2487 15.06399379 64174"},"height_km":548.9889772377383,"latitude":-5.192314893756524,"launch":"5ef6a1e90059c33cee4a828a","longitude":44.09544745331834,"velocity_kms":7.588256286799044,"version":"v1.0","id":"5f5a9c1e2fd30c00065e5eb7"},{"spaceTrack":{"CCSDS_OMM_VERS":"2.0","COMMENT":"GENERATED VIA SPACE-TRACK.ORG API","CREATION_DATE":"2021-10-26T14:26:12","ORIGINATOR":"18 SPCS","OBJECT_NAME":"STARLINK-1653","OBJECT_ID":"2020-062AD","CENTER_NAME":"EARTH","REF_FRAME":"TEME","TIME_SYSTEM":"UTC","MEAN_ELEMENT_THEORY":"SGP4","EPOCH":"2021-10-26T05:37:09.553440","MEAN_MOTION":15.06402842,"ECCENTRICITY":0.0001324,"INCLINATION":53.0548,"RA_OF_ASC_NODE":318.893,"ARG_OF_PERICENTER":74.249,"MEAN_ANOMALY":285.8645,"EPHEMERIS_TYPE":0,"CLASSIFICATION_TYPE":"U","NORAD_CAT_ID":46352,"ELEMENT_SET_NO":999,"REV_AT_EPOCH":6430,"BSTAR":0.00014342,"MEAN_MOTION_DOT":0.00001856,"MEAN_MOTION_DDOT":0,"SEMIMAJOR_AXIS":6925.34,"PERIOD":95.592,"APOAPSIS":548.122,"PERIAPSIS":546.288,"OBJECT_TYPE":"PAYLOAD","RCS_SIZE":"LARGE","COUNTRY_CODE":"US","LAUNCH_DATE":"2020-09-03","SITE":"AFETR","DECAY_DATE":null,"DECAYED":0,"FILE":3184523,"GP_ID":188167679,"TLE_LINE0":"0 STARLINK-1653","TLE_LINE1":"1 46352U 20062AD  21299.23413835  .00001856  00000-0  14342-3 0  9999","TLE_LINE2":"2 46352  53.0548 318.8930 0001324  74.2490 285.8645 15.06402842 64308"},"height_km":552.855489603874,"latitude":53.0445571067982,"launch":"5ef6a1e90059c33cee4a828a","longitude":144.18584373093066,"velocity_kms":7.592183238387464,"version":"v1.0","id":"5f5a9c1e2fd30c00065e5eb9"},{"spaceTrack":{"CCSDS_OMM_VERS":"2.0","COMMENT":"GENERATED VIA SPACE-TRACK.ORG API","CREATION_DATE":"2021-10-26T14:26:12","ORIGINATOR":"18 SPCS","OBJECT_NAME":"STARLINK-1670","OBJECT_ID":"2020-062AX","CENTER_NAME":"EARTH","REF_FRAME":"TEME","TIME_SYSTEM":"UTC","MEAN_ELEMENT_THEORY":"SGP4","EPOCH":"2021-10-26T06:09:00.941760","MEAN_MOTION":15.06404114,"ECCENTRICITY":0.0001188,"INCLINATION":53.0558,"RA_OF_ASC_NODE":318.8067,"ARG_OF_PERICENTER":81.9403,"MEAN_ANOMALY":278.1721,"EPHEMERIS_TYPE":0,"CLASSIFICATION_TYPE":"U","NORAD_CAT_ID":46370,"ELEMENT_SET_NO":999,"REV_AT_EPOCH":6430,"BSTAR":0.000016043,"MEAN_MOTION_DOT":-4.2e-7,"MEAN_MOTION_DDOT":0,"SEMIMAJOR_AXIS":6925.336,"PERIOD":95.592,"APOAPSIS":548.024,"PERIAPSIS":546.378,"OBJECT_TYPE":"PAYLOAD","RCS_SIZE":"LARGE","COUNTRY_CODE":"US","LAUNCH_DATE":"2020-09-03","SITE":"AFETR","DECAY_DATE":null,"DECAYED":0,"FILE":3184551,"GP_ID":188168560,"TLE_LINE0":"0 STARLINK-1670","TLE_LINE1":"1 46370U 20062AX  21299.25626090 -.00000042  00000-0  16043-4 0  9998","TLE_LINE2":"2 46370  53.0558 318.8067 0001188  81.9403 278.1721 15.06404114 64301"},"height_km":553.3112895843051,"latitude":-20.934418853242253,"launch":"5ef6a1e90059c33cee4a828a","longitude":31.374009991402843,"velocity_kms":7.585059447618279,"version":"v1.0","id":"5f5a9c1e2fd30c00065e5eb4"},{"spaceTrack":{"CCSDS_OMM_VERS":"2.0","COMMENT":"GENERATED VIA SPACE-TRACK.ORG API","CREATION_DATE":"2021-10-25T14:26:11","ORIGINATOR":"18 SPCS","OBJECT_NAME":"STARLINK-1690","OBJECT_ID":"2020-062AK","CENTER_NAME":"EARTH","REF_FRAME":"TEME","TIME_SYSTEM":"UTC","MEAN_ELEMENT_THEORY":"SGP4","EPOCH":"2021-10-25T09:19:03.165312","MEAN_MOTION":15.0640695,"ECCENTRICITY":0.0001008,"INCLINATION":53.0547,"RA_OF_ASC_NODE":342.6973,"ARG_OF_PERICENTER":80.6522,"MEAN_ANOMALY":279.4581,"EPHEMERIS_TYPE":0,"CLASSIFICATION_TYPE":"U","NORAD_CAT_ID":46358,"ELEMENT_SET_NO":999,"REV_AT_EPOCH":6389,"BSTAR":0.00013385,"MEAN_MOTION_DOT":0.00001713,"MEAN_MOTION_DDOT":0,"SEMIMAJOR_AXIS":6925.327,"PERIOD":95.592,"APOAPSIS":547.89,"PERIAPSIS":546.494,"OBJECT_TYPE":"PAYLOAD","RCS_SIZE":"LARGE","COUNTRY_CODE":"US","LAUNCH_DATE":"2020-09-03","SITE":"AFETR","DECAY_DATE":null,"DECAYED":0,"FILE":3183206,"GP_ID":188117192,"TLE_LINE0":"0 STARLINK-1690","TLE_LINE1":"1 46358U 20062AK  21298.38823108  .00001713  00000-0  13385-3 0  9996","TLE_LINE2":"2 46358  53.0547 342.6973 0001008  80.6522 279.4581 15.06406950 63896"},"height_km":547.613243756351,"latitude":2.880347988428864,"launch":"5ef6a1e90059c33cee4a828a","longitude":70.14917992918087,"velocity_kms":7.589672069401058,"version":"v1.0","id":"5f5a9c1e2fd30c00065e5eb5"},{"spaceTrack":{"CCSDS_OMM_VERS":"2.0","COMMENT":"GENERATED VIA SPACE-TRACK.ORG API","CREATION_DATE":"2021-10-25T22:26:12","ORIGINATOR":"18 SPCS","OBJECT_NAME":"STARLINK-1752","OBJECT_ID":"2020-062P","CENTER_NAME":"EARTH","REF_FRAME":"TEME","TIME_SYSTEM":"UTC","MEAN_ELEMENT_THEORY":"SGP4","EPOCH":"2021-10-25T10:43:57.980640","MEAN_MOTION":15.0640299,"ECCENTRICITY":0.0001208,"INCLINATION":53.055,"RA_OF_ASC_NODE":342.422,"ARG_OF_PERICENTER":83.445,"MEAN_ANOMALY":276.6676,"EPHEMERIS_TYPE":0,"CLASSIFICATION_TYPE":"U","NORAD_CAT_ID":46338,"ELEMENT_SET_NO":999,"REV_AT_EPOCH":6389,"BSTAR":0.000053116,"MEAN_MOTION_DOT":0.0000051,"MEAN_MOTION_DDOT":0,"SEMIMAJOR_AXIS":6925.339,"PERIOD":95.592,"APOAPSIS":548.041,"PERIAPSIS":546.368,"OBJECT_TYPE":"PAYLOAD","RCS_SIZE":"LARGE","COUNTRY_CODE":"US","LAUNCH_DATE":"2020-09-03","SITE":"AFETR","DECAY_DATE":null,"DECAYED":0,"FILE":3183562,"GP_ID":188147875,"TLE_LINE0":"0 STARLINK-1752","TLE_LINE1":"1 46338U 20062P   21298.44719885  .00000510  00000-0  53116-4 0  9998","TLE_LINE2":"2 46338  53.0550 342.4220 0001208  83.4450 276.6676 15.06402990 63898"},"height_km":548.909089335797,"latitude":33.620478028637706,"launch":"5ef6a1e90059c33cee4a828a","longitude":97.80425776480791,"velocity_kms":7.59220078695659,"version":"v1.0","id":"5f5a9c1e2fd30c00065e5ec0"}]